STARLINK-2022           
1 47643U 21012Z   24197.38883187  .00000686  00000+0  64905-4 0  9996
2 47643  53.0546 235.4516 0001202  91.3963 268.7164 15.06405853189482
